# MOLNIYA 2-14
1 08195U 75081A   06176.33215444  .00000099  00000-0  11873-3 0   813
2 08195  64.1586 279.0717 6877146 264.7651  20.2257  2.00491383225656      0.0       200.0        200.00